IRIDIUM 154             
1 43574U 18061F   26194.60410200  .00000113  00000+0  33299-4 0  9998
2 43574  86.3940  45.7572 0002297  90.1558 269.9901 14.34217705417195
IRIDIUM 163             
1 43575U 18061G   26194.65484302  .00000081  00000+0  21951-4 0  9994
2 43575  86.3936  45.6504 0002148  85.6328 274.5113 14.34217526417170
IRIDIUM 156             
1 43576U 18061H   26194.62947320  .00000053  00000+0  11915-4 0  9994
2 43576  86.3935  45.6681 0002077  91.6329 268.5105 14.34217490417168
IRIDIUM 164             
1 43577U 18061J   26194.61044726  .00000145  00000+0  44855-4 0  9993
2 43577  86.3938  45.7172 0002307  89.1269 271.0191 14.34217852417200
IRIDIUM 159             
1 43578U 18061K   26194.64850033  .00000026  00000+0  20476-5 0  9995
2 43578  86.3935  45.6375 0002027  84.8160 275.3267 14.34217206417173
IRIDIUM 180             
1 43922U 19002A   26194.43869238  .00000109  00000+0  31904-4 0  9997
2 43922  86.3990 342.6231 0002194  90.8391 269.3056 14.34218051392750
IRIDIUM 176             
1 43923U 19002B   26194.46259761  .00000413  00000+0  61607-4 0  9996
2 43923  86.6109 342.5528 0002342  89.7873 270.3613 14.72247791403110
IRIDIUM 168             
1 43924U 19002C   26194.50211601  .00000032  00000+0  42225-5 0  9996
2 43924  86.3991 342.6745 0002239  92.3880 267.7573 14.34217044392749
IRIDIUM 173             
1 43925U 19002D   26194.48943200 -.00000079  00000+0 -35373-4 0  9999
2 43925  86.3986 342.5680 0001999  91.6475 268.4949 14.34216738392727
IRIDIUM 169             
1 43926U 19002E   26194.54428776  .00000031  00000+0  36535-5 0  9991
2 43926  86.4219  14.1703 0001834 101.8850 258.2554 14.38613087394010
IRIDIUM 172             
1 43927U 19002F   26194.48309021  .00000039  00000+0  69627-5 0  9992
2 43927  86.3986 342.5781 0002183  90.5435 269.6011 14.34217575392735
IRIDIUM 175             
1 43928U 19002G   26194.61537191  .00000175  00000+0  45709-4 0  9994
2 43928  86.4513 279.4746 0005248 118.4148 241.7583 14.43626697402790
IRIDIUM 171             
1 43929U 19002H   26194.46406207  .00000037  00000+0  61576-5 0  9999
2 43929  86.3996 342.8952 0002220  95.0461 265.0988 14.34217544392720
IRIDIUM 170             
1 43930U 19002J   26194.46876825  .00000415  00000+0  61879-4 0  9993
2 43930  86.6108 342.5524 0002287  86.1535 273.9943 14.72248364403120
IRIDIUM 167             
1 43931U 19002K   26194.45771931  .00000045  00000+0  89616-5 0  9994
2 43931  86.3989 342.6115 0002265  98.9821 261.1631 14.34217687392725
IRIDIUM 181             
1 56726U 23068S   26194.52095042  .00000183  00000+0  48384-4 0  9996
2 56726  86.4475  45.7783 0002406  83.7767 276.3708 14.43311699166238
IRIDIUM 177             
1 56727U 23068T   26194.41914180  .00000573  00000+0  72199-4 0  9992
2 56727  86.1984 316.3369 0002141  94.2852 265.8614 14.80028849170244
IRIDIUM 174             
1 56728U 23068U   26194.45633518  .00000426  00000+0  63614-4 0  9999
2 56728  86.6117 342.7076 0002013  86.2202 273.9246 14.72256916169882
IRIDIUM 178             
1 56729U 23068V   26194.54335555  .00000185  00000+0  20952-4 0  9990
2 56729  86.6534  14.3437 0002317  90.5290 269.6197 14.80025678170260
IRIDIUM 179             
1 56730U 23068W   26194.60561839  .00000259  00000+0  30715-4 0  9995
2 56730  86.6766  23.3754 0002314  93.6017 266.5469 14.80033242170274
