OBJECT_NAME,OBJECT_ID,EPOCH,MEAN_MOTION,ECCENTRICITY,INCLINATION,RA_OF_ASC_NODE,ARG_OF_PERICENTER,MEAN_ANOMALY,EPHEMERIS_TYPE,CLASSIFICATION_TYPE,NORAD_CAT_ID,ELEMENT_SET_NO,REV_AT_EPOCH,BSTAR,MEAN_MOTION_DOT,MEAN_MOTION_DDOT
IRIDIUM 154,2018-061F,2026-07-13T14:29:54.412800,14.34217705,.00022978,86.3940,45.7572,90.1558,269.9901,0,U,43574,999,41719,.33298882E-4,.113E-5,0
IRIDIUM 163,2018-061G,2026-07-13T15:42:58.436928,14.34217526,.00021487,86.3936,45.6504,85.6328,274.5113,0,U,43575,999,41717,.21951271E-4,.81E-6,0
IRIDIUM 156,2018-061H,2026-07-13T15:06:26.484480,14.34217490,.00020772,86.3935,45.6681,91.6329,268.5105,0,U,43576,999,41716,.11915478E-4,.53E-6,0
IRIDIUM 164,2018-061J,2026-07-13T14:39:02.643264,14.34217852,.00023071,86.3938,45.7172,89.1269,271.0191,0,U,43577,999,41720,.44854807E-4,.145E-5,0
IRIDIUM 159,2018-061K,2026-07-13T15:33:50.428512,14.34217206,.00020278,86.3935,45.6375,84.8160,275.3267,0,U,43578,999,41717,.2047572E-5,.26E-6,0
IRIDIUM 180,2019-002A,2026-07-13T10:31:43.021632,14.34218051,.00021942,86.3990,342.6231,90.8391,269.3056,0,U,43922,999,39275,.31904187E-4,.109E-5,0
IRIDIUM 176,2019-002B,2026-07-13T11:06:08.433504,14.72247791,.00023423,86.6109,342.5528,89.7873,270.3613,0,U,43923,999,40311,.61607251E-4,.413E-5,0
IRIDIUM 168,2019-002C,2026-07-13T12:03:02.823264,14.34217044,.00022393,86.3991,342.6745,92.3880,267.7573,0,U,43924,999,39274,.4222533E-5,.32E-6,0
IRIDIUM 173,2019-002D,2026-07-13T11:44:46.924800,14.34216738,.00019991,86.3986,342.5680,91.6475,268.4949,0,U,43925,999,39272,-.35372959E-4,-.79E-6,0
IRIDIUM 169,2019-002E,2026-07-13T13:03:46.462464,14.38613087,.00018345,86.4219,14.1703,101.8850,258.2554,0,U,43926,999,39401,.3653534E-5,.31E-6,0
IRIDIUM 172,2019-002F,2026-07-13T11:35:38.994144,14.34217575,.00021836,86.3986,342.5781,90.5435,269.6011,0,U,43927,999,39273,.6962727E-5,.39E-6,0
IRIDIUM 175,2019-002G,2026-07-13T14:46:08.133024,14.43626697,.00052481,86.4513,279.4746,118.4148,241.7583,0,U,43928,999,40279,.45709318E-4,.175E-5,0
IRIDIUM 171,2019-002H,2026-07-13T11:08:14.962848,14.34217544,.00022203,86.3996,342.8952,95.0461,265.0988,0,U,43929,999,39272,.615762E-5,.37E-6,0
IRIDIUM 170,2019-002J,2026-07-13T11:15:01.576800,14.72248364,.00022875,86.6108,342.5524,86.1535,273.9943,0,U,43930,999,40312,.61878983E-4,.415E-5,0
IRIDIUM 167,2019-002K,2026-07-13T10:59:06.948384,14.34217687,.00022658,86.3989,342.6115,98.9821,261.1631,0,U,43931,999,39272,.8961625E-5,.45E-6,0
IRIDIUM 181,2023-068S,2026-07-13T12:30:10.116288,14.43311699,.00024065,86.4475,45.7783,83.7767,276.3708,0,U,56726,999,16623,.48384196E-4,.183E-5,0
IRIDIUM 177,2023-068T,2026-07-13T10:03:33.851520,14.80028849,.00021412,86.1984,316.3369,94.2852,265.8614,0,U,56727,999,17024,.72199481E-4,.573E-5,0
IRIDIUM 174,2023-068U,2026-07-13T10:57:07.359552,14.72256916,.0002013,86.6117,342.7076,86.2202,273.9246,0,U,56728,999,16988,.63614353E-4,.426E-5,0
IRIDIUM 178,2023-068V,2026-07-13T13:02:25.919520,14.80025678,.00023176,86.6534,14.3437,90.5290,269.6197,0,U,56729,999,17026,.20951954E-4,.185E-5,0
IRIDIUM 179,2023-068W,2026-07-13T14:32:05.428896,14.80033242,.00023144,86.6766,23.3754,93.6017,266.5469,0,U,56730,999,17027,.30714649E-4,.259E-5,0
